[{"OBJECT_NAME":"GEESAT-6 04","OBJECT_ID":"2025-214E","EPOCH":"2026-03-09T23:39:16.844832","MEAN_MOTION":14.829845,"ECCENTRICITY":0.00094543,"INCLINATION":49.9846,"RA_OF_ASC_NODE":47.7418,"ARG_OF_PERICENTER":207.5517,"MEAN_ANOMALY":152.4921,"EPHEMERIS_TYPE":0,"CLASSIFICATION_TYPE":"U","NORAD_CAT_ID":65716,"ELEMENT_SET_NO":999,"REV_AT_EPOCH":2478,"BSTAR":0.00038451427,"MEAN_MOTION_DOT":2.934e-5,"MEAN_MOTION_DDOT":0},{"OBJECT_NAME":"COSMOS 2251 DEB","OBJECT_ID":"1993-036ANR","EPOCH":"2026-03-09T08:35:44.257632","MEAN_MOTION":14.86814371,"ECCENTRICITY":0.00155415,"INCLINATION":74.0451,"RA_OF_ASC_NODE":206.9387,"ARG_OF_PERICENTER":248.8833,"MEAN_ANOMALY":139.8715,"EPHEMERIS_TYPE":0,"CLASSIFICATION_TYPE":"U","NORAD_CAT_ID":35650,"ELEMENT_SET_NO":999,"REV_AT_EPOCH":88920,"BSTAR":0.001959274,"MEAN_MOTION_DOT":0.00017517,"MEAN_MOTION_DDOT":0}]
